NORAD_CAT_ID,OBJECT_NAME,OBJECT_TYPE,EPOCH,MEAN_MOTION,ECCENTRICITY,INCLINATION,RA_OF_ASC_NODE,ARG_OF_PERICENTER,MEAN_ANOMALY,BSTAR,MEAN_MOTION_DOT,MEAN_MOTION_DDOT,TLE_LINE0,TLE_LINE1,TLE_LINE2,SEMIMAJOR_AXIS,PERIOD,APOGEE,PERIGEE,DECAYED
53591.0,STARLINK-4674,PAYLOAD,2022-12-23 13:54:38,15.08830071,0.0001299,53.2176,106.0854,66.0223,294.0905,4.8872e-05,4.9000000000000005e-06,0.0,0 STARLINK-4674,1 53591U 22104D   22357.57961257  .00000490  00000-0  48872-4 0  9999,2 53591  53.2176 106.0854 0001299  66.0223 294.0905 15.08830071 19016,6917.911,95.438,540.674,538.877,0.0
53591.0,STARLINK-4674,PAYLOAD,2022-12-24 10:34:38,15.0884934,0.0001478,53.2179,102.219,65.8646,294.25,0.00016872,2.399e-05,0.0,0 STARLINK-4674,1 53591U 22104D   22358.44072077  .00002399  00000-0  16872-3 0  9993,2 53591  53.2179 102.2190 0001478  65.8646 294.2500 15.08849340 19141,6917.852,95.437,540.739,538.694,0.0
53591.0,STARLINK-4674,PAYLOAD,2022-12-24 13:45:24,15.08847943,0.0001531999999999,53.2174,101.6249,61.1376,298.9770000000001,0.00021114,3.075e-05,0.0,0 STARLINK-4674,1 53591U 22104D   22358.57320497  .00003075  00000-0  21114-3 0  9996,2 53591  53.2174 101.6249 0001532  61.1376 298.9770 15.08847943 18128,6917.856,95.437,540.781,538.661,0.0
53591.0,STARLINK-4674,PAYLOAD,2022-12-24 16:56:11,15.08847965,0.0001531999999999,53.2173,101.0308,59.3433,300.771,0.0001825,2.618e-05,0.0,0 STARLINK-4674,1 53591U 22104D   22358.70568489  .00002618  00000-0  18250-3 0  9995,2 53591  53.2173 101.0308 0001532  59.3433 300.7710 15.08847965 19187,6917.856,95.437,540.781,538.661,0.0
53591.0,STARLINK-4674,PAYLOAD,2022-12-25 08:50:03,15.08835973,0.000149,53.2173,98.0568,56.9639,303.1496,9.3955e-05,1.207e-05,0.0,0 STARLINK-4674,1 53591U 22104D   22359.36809087  .00001207  00000-0  93955-4 0  9999,2 53591  53.2173  98.0568 0001490  56.9639 303.1496 15.08835973 18244,6917.893,95.438,540.788,538.727,0.0
53591.0,STARLINK-4674,PAYLOAD,2022-12-25 15:11:35,15.08835484,0.000157,53.2176,96.8671,59.3546,300.7601,2.212e-05,6.4e-07,0.0,0 STARLINK-4674,1 53591U 22104D   22359.63305121  .00000064  00000-0  22120-4 0  9995,2 53591  53.2176  96.8671 0001570  59.3546 300.7601 15.08835484 19329,6917.894,95.438,540.845,538.673,0.0
53591.0,STARLINK-4674,PAYLOAD,2022-12-26 13:26:59,15.08839821,0.0001549,53.2181,92.7043,55.2403,304.8735,2.9182e-05,1.76e-06,0.0,0 STARLINK-4674,1 53591U 22104D   22360.56041071  .00000176  00000-0  29182-4 0  9999,2 53591  53.2181  92.7043 0001549  55.2403 304.8735 15.08839821 18428,6917.880999999999,95.438,540.818,538.674,0.0
53591.0,STARLINK-4674,PAYLOAD,2022-12-27 13:17:46,15.08834474,0.0001539,53.2186,88.2448,58.4386,301.6756,9.6975e-05,1.255e-05,0.0,0 STARLINK-4674,1 53591U 22104D   22361.55401544  .00001255  00000-0  96975-4 0  9997,2 53591  53.2186  88.2448 0001539  58.4386 301.6756 15.08834474 19615,6917.897,95.438,540.827,538.698,0.0
53591.0,STARLINK-4674,PAYLOAD,2022-12-27 14:53:09,15.08840485,0.0002303,53.2169,87.9448,77.8709,282.2541,9.1122e-05,1.162e-05,0.0,0 STARLINK-4674,1 53591U 22104D   22361.62025185  .00001162  00000-0  91122-4 0  9994,2 53591  53.2169  87.9448 0002303  77.8709 282.2541 15.08840485 19622,6917.879,95.438,541.337,538.151,0.0
53591.0,STARLINK-4674,PAYLOAD,2022-12-28 14:43:56,15.08841766,0.000178,53.2182,83.4847,65.3667,294.751,0.00010796,1.431e-05,0.0,0 STARLINK-4674,1 53591U 22104D   22362.61384821  .00001431  00000-0  10796-3 0  9995,2 53591  53.2182  83.4847 0001780  65.3667 294.7510 15.08841766 19777,6917.875,95.437,540.971,538.509,0.0
53591.0,STARLINK-4674,PAYLOAD,2022-12-29 05:02:25,15.08837573,0.0001296,53.2184,80.8071,91.6601,268.454,-0.00013144,-2.379e-05,0.0,0 STARLINK-4674,1 53591U 22104D   22363.21001717 -.00002379  00000-0 -13144-3 0  9996,2 53591  53.2184  80.8071 0001296  91.6601 268.4540 15.08837573 18828,6917.888000000001,95.438,540.649,538.856,0.0
53591.0,STARLINK-4674,PAYLOAD,2022-12-29 11:23:59,15.08819094,0.0001196,53.219,79.6195,1.4875,358.6121,-0.0002305,-3.952e-05,0.0,0 STARLINK-4674,1 53591U 22104D   22363.47499506 -.00003952  00000-0 -23050-3 0  9996,2 53591  53.2190  79.6195 0001196   1.4875 358.6121 15.08819094 18868,6917.944,95.439,540.637,538.982,0.0
53591.0,STARLINK-4674,PAYLOAD,2022-12-30 04:53:14,15.08814035,0.0002004,53.2207,76.3522,43.8938,316.2213,8.456200000000001e-05,1.057e-05,0.0,0 STARLINK-4674,1 53591U 22104D   22364.20363518  .00001057  00000-0  84562-4 0  9999,2 53591  53.2207  76.3522 0002004  43.8938 316.2213 15.08814035 18978,6917.96,95.439,541.211,538.438,0.0
53591.0,STARLINK-4674,PAYLOAD,2022-12-30 11:14:46,15.08825417,0.000148,53.218,75.1611,55.4277,304.6855,0.00014293,1.987e-05,0.0,0 STARLINK-4674,1 53591U 22104D   22364.46858978  .00001987  00000-0  14293-3 0  9991,2 53591  53.2180  75.1611 0001480  55.4277 304.6855 15.08825417 19011,6917.925,95.438,540.814,538.766,0.0
53591.0,STARLINK-4674,PAYLOAD,2022-12-31 04:43:59,15.08841343,0.0001623,53.2191,71.8901,49.8763,310.2371,0.00045044,6.888e-05,0.0,0 STARLINK-4674,1 53591U 22104D   22365.19721773  .00006888  00000-0  45044-3 0  9997,2 53591  53.2191  71.8901 0001623  49.8763 310.2371 15.08841343 19128,6917.876,95.437,540.864,538.619,0.0
53591.0,STARLINK-4674,PAYLOAD,2022-12-31 14:16:18,15.08870908,0.0001857,53.2184,70.1071,48.269,311.8461,0.00083104,0.00012974,0.0,0 STARLINK-4674,1 53591U 22104D   22365.59465519  .00012974  00000-0  83104-3 0  9996,2 53591  53.2184  70.1071 0001857  48.2690 311.8461 15.08870908 20220,6917.786,95.436,540.936,538.366,0.0
53591.0,STARLINK-4674,PAYLOAD,2023-01-01 04:34:46,15.08860792,0.0002,53.2188,67.4276,51.8496,308.2676,0.00024722,3.651e-05,0.0,0 STARLINK-4674,1 53591U 22104D   23001.19081100  .00003651  00000-0  24722-3 0  9993,2 53591  53.2188  67.4276 0002000  51.8496 308.2676 15.08860792 19276,6917.816999999999,95.436,541.065,538.298,0.0
53591.0,STARLINK-4674,PAYLOAD,2023-01-01 14:07:05,15.08834115,0.0001696,53.2176,65.6468,39.6295,320.482,-0.00049768,-8.199e-05,0.0,0 STARLINK-4674,1 53591U 22104D   23001.58825664 -.00008199  00000-0 -49768-3 0  9998,2 53591  53.2176  65.6468 0001696  39.6295 320.4820 15.08834115 19331,6917.898,95.438,540.937,538.59,0.0
53591.0,STARLINK-4674,PAYLOAD,2023-01-02 10:47:06,15.08841032,0.0001714,53.2179,61.7807,43.0117,317.1009,0.00069665,0.00010817,0.0,0 STARLINK-4674,1 53591U 22104D   23002.44938235  .00010817  00000-0  69665-3 0  9999,2 53591  53.2179  61.7807 0001714  43.0117 317.1009 15.08841032 19463,6917.877,95.437,540.928,538.557,0.0
53591.0,STARLINK-4674,PAYLOAD,2023-01-02 13:57:52,15.08847186,0.0001763,53.218,61.1854,45.4546,314.659,0.0010728,0.0001683,0.0,0 STARLINK-4674,1 53591U 22104D   23002.58186304  .00016830  00000-0  10728-2 0  9992,2 53591  53.2180  61.1854 0001763  45.4546 314.6590 15.08847186 20529,6917.858,95.437,540.943,538.504,0.0
53591.0,STARLINK-4674,PAYLOAD,2023-01-02 20:19:25,15.08842755,0.0001757,53.2179,59.9962,44.1866,315.9266,0.00057068,8.807e-05,0.0,0 STARLINK-4674,1 53591U 22104D   23002.84682413  .00008807  00000-0  57068-3 0  9997,2 53591  53.2179  59.9962 0001757  44.1866 315.9266 15.08842755 20561,6917.871999999999,95.437,540.952,538.521,0.0
53591.0,STARLINK-4674,PAYLOAD,2023-01-03 04:16:21,15.08839903,0.0001847,53.2188,58.5078,43.2817,316.832,0.00028837,4.304e-05,0.0,0 STARLINK-4674,1 53591U 22104D   23003.17802469  .00004304  00000-0  28837-3 0  9999,2 53591  53.2188  58.5078 0001847  43.2817 316.8320 15.08839903 19571,6917.880999999999,95.438,541.023,538.4680000000002,0.0
53591.0,STARLINK-4674,PAYLOAD,2023-01-03 12:13:17,15.08833612,0.0001867,53.2186,57.0212,43.2657,316.8482,0.00019704,2.849e-05,0.0,0 STARLINK-4674,1 53591U 22104D   23003.50922723  .00002849  00000-0  19704-3 0  9997,2 53591  53.2186  57.0212 0001867  43.2657 316.8482 15.08833612 19623,6917.9,95.438,541.056,538.4730000000002,0.0
53591.0,STARLINK-4674,PAYLOAD,2023-01-04 10:28:40,15.08847501,0.0001859,53.2187,52.8582,42.5021,317.6114,7.4922e-05,9.05e-06,0.0,0 STARLINK-4674,1 53591U 22104D   23004.43658164  .00000905  00000-0  74922-4 0  9990,2 53591  53.2187  52.8582 0001859  42.5021 317.6114 15.08847501 19763,6917.857,95.437,541.008,538.436,0.0
53591.0,STARLINK-4674,PAYLOAD,2023-01-04 20:00:58,15.08855973,0.0001972,53.2188,51.0742,44.1817,315.9332,0.00025064,3.705e-05,0.0,0 STARLINK-4674,1 53591U 22104D   23004.83401574  .00003705  00000-0  25064-3 0  9998,2 53591  53.2188  51.0742 0001972  44.1817 315.9332 15.08855973 20868,6917.831999999999,95.437,541.061,538.332,0.0
53591.0,STARLINK-4674,PAYLOAD,2023-01-05 11:54:49,15.08863797,0.0001985,53.2183,48.1015,46.5467,313.569,0.00039738,6.046e-05,0.0,0 STARLINK-4674,1 53591U 22104D   23005.49640831  .00006046  00000-0  39738-3 0  9996,2 53591  53.2183  48.1015 0001985  46.5467 313.5690 15.08863797 19923,6917.808000000001,95.436,541.0459999999998,538.299,0.0
53591.0,STARLINK-4674,PAYLOAD,2023-01-06 08:34:50,15.08828985,0.000171,53.2186,44.2348,38.8754,321.2361,-0.00050474,-8.31e-05,0.0,0 STARLINK-4674,1 53591U 22104D   23006.35753284 -.00008310  00000-0 -50474-3 0  9997,2 53591  53.2186  44.2348 0001710  38.8754 321.2361 15.08828985 20058,6917.914000000002,95.438,540.962,538.596,0.0
53591.0,STARLINK-4674,PAYLOAD,2023-01-06 11:45:37,15.08826253,0.0001567,53.2191,43.6397,39.575,320.5356,-0.00043029,-7.127e-05,0.0,0 STARLINK-4674,1 53591U 22104D   23006.49001485 -.00007127  00000-0 -43029-3 0  9994,2 53591  53.2191  43.6397 0001567  39.5750 320.5356 15.08826253 21115,6917.922,95.438,540.871,538.703,0.0
53591.0,STARLINK-4674,PAYLOAD,2023-01-07 02:04:06,15.08826691,0.0001682,53.2184,40.9656,30.88,329.2290000000001,0.00070015,0.00010868,0.0,0 STARLINK-4674,1 53591U 22104D   23007.08618488  .00010868  00000-0  70015-3 0  9996,2 53591  53.2184  40.9656 0001682  30.8800 329.2290 15.08826691 21202,6917.920999999999,95.438,540.95,538.622,0.0
